[{"OBJECT_NAME":"OPTICUBE 04","OBJECT_ID":"2016-067D","EPOCH":"2026-03-09T12:14:28.758048","MEAN_MOTION":15.09188378,"ECCENTRICITY":0.00170901,"INCLINATION":98.0811,"RA_OF_ASC_NODE":275.5525,"ARG_OF_PERICENTER":94.6311,"MEAN_ANOMALY":265.6869,"EPHEMERIS_TYPE":0,"CLASSIFICATION_TYPE":"U","NORAD_CAT_ID":41851,"ELEMENT_SET_NO":999,"REV_AT_EPOCH":51013,"BSTAR":0.00024566739,"MEAN_MOTION_DOT":3.845e-5,"MEAN_MOTION_DDOT":0},{"OBJECT_NAME":"STARLINK-2111","OBJECT_ID":"2021-005AT","EPOCH":"2026-03-09T23:31:12.860544","MEAN_MOTION":15.06396453,"ECCENTRICITY":0.00014407,"INCLINATION":53.0553,"RA_OF_ASC_NODE":60.3162,"ARG_OF_PERICENTER":82.8357,"MEAN_ANOMALY":277.2796,"EPHEMERIS_TYPE":0,"CLASSIFICATION_TYPE":"U","NORAD_CAT_ID":47390,"ELEMENT_SET_NO":999,"REV_AT_EPOCH":28308,"BSTAR":1.611052e-5,"MEAN_MOTION_DOT":-4.2e-7,"MEAN_MOTION_DDOT":0}]
